{"type": "FeatureCollection", "features": [ {"type": "Feature", "properties": {"norad_id": 30702, "name": "FENGYUN 1C DEB", "group": "fengyun-1c-debris", "lat": 81.00057733891455, "lon": -102.43141105703565, "alt_km": 907.126158299382, "timestamp": "2025-12-06T09:34:17.191913+00:00", "meta": {"OBJECT_NAME": "FENGYUN 1C DEB", "OBJECT_ID": "1999-025ARL", "EPOCH": "2025-12-05T07:34:42.796704", "MEAN_MOTION": 14.03566146, "ECCENTRICITY": 0.00684667, "INCLINATION": 98.7706, "RA_OF_ASC_NODE": 359.4198, "ARG_OF_PERICENTER": 322.9554, "MEAN_ANOMALY": 59.07, "EPHEMERIS_TYPE": 0, "CLASSIFICATION_TYPE": "U", "NORAD_CAT_ID": 30702, "ELEMENT_SET_NO": 999, "REV_AT_EPOCH": 96058, "BSTAR": 0.0011191176, "MEAN_MOTION_DOT": 1.75e-05, "MEAN_MOTION_DDOT": 0}, "tle": {"line1": "1 30702U 99025ARL 25339.31577311  .00001750  00000+0  11191-2 0  9994", "line2": "2 30702  98.7706 359.4198 0068466 322.9554  59.0700 14.03566146960585"}}, "geometry": {"type": "Point", "coordinates": [-102.43141105703565, 81.00057733891455]}}, {"type": "Feature", "properties": {"norad_id": 30703, "name": "FENGYUN 1C DEB", "group": "fengyun-1c-debris", "lat": -13.205783288411023, "lon": 143.06098277894495, "alt_km": 869.9172526972015, "timestamp": "2025-12-06T09:34:17.191923+00:00", "meta": {"OBJECT_NAME": "FENGYUN 1C DEB", "OBJECT_ID": "1999-025ARM", "EPOCH": "2025-12-05T22:45:55.757664", "MEAN_MOTION": 14.19267043, "ECCENTRICITY": 0.01181267, "INCLINATION": 99.1413, "RA_OF_ASC_NODE": 324.7619, "ARG_OF_PERICENTER": 311.3932, "MEAN_ANOMALY": 103.8767, "EPHEMERIS_TYPE": 0, "CLASSIFICATION_TYPE": "U", "NORAD_CAT_ID": 30703, "ELEMENT_SET_NO": 999, "REV_AT_EPOCH": 96444, "BSTAR": 0.0022497389, "MEAN_MOTION_DOT": 5.014e-05, "MEAN_MOTION_DDOT": 0}, "tle": {"line1": "1 30703U 99025ARM 25339.94856201  .00005014  00000+0  22497-2 0  9990", "line2": "2 30703  99.1413 324.7619 0118126 311.3932 103.8767 14.19267043964441"}}, "geometry": {"type": "Point", "coordinates": [143.06098277894495, -13.205783288411023]}}, {"type": "Feature", "properties": {"norad_id": 30704, "name": "FENGYUN 1C DEB", "group": "fengyun-1c-debris", "lat": 8.281828964940498, "lon": 160.6128910389319, "alt_km": 853.451545921489, "timestamp": "2025-12-06T09:34:17.191933+00:00", "meta": {"OBJECT_NAME": "FENGYUN 1C DEB", "OBJECT_ID": "1999-025ARN", "EPOCH": "2025-12-05T11:13:29.857152", "MEAN_MOTION": 14.02033995, "ECCENTRICITY": 0.00816596, "INCLINATION": 98.8709, "RA_OF_ASC_NODE": 338.4044, "ARG_OF_PERICENTER": 119.9187, "MEAN_ANOMALY": 33.8378, "EPHEMERIS_TYPE": 0, "CLASSIFICATION_TYPE": "U", "NORAD_CAT_ID": 30704, "ELEMENT_SET_NO": 999, "REV_AT_EPOCH": 96009, "BSTAR": 0.00059054331, "MEAN_MOTION_DOT": 8.86e-06, "MEAN_MOTION_DDOT": 0}, "tle": {"line1": "1 30704U 99025ARN 25339.46770668  .00000886  00000+0  59054-3 0  9992", "line2": "2 30704  98.8709 338.4044 0081659 119.9187  33.8378 14.02033995960090"}}, "geometry": {"type": "Point", "coordinates": [160.6128910389319, 8.281828964940498]}}, {"type": "Feature", "properties": {"norad_id": 30705, "name": "FENGYUN 1C DEB", "group": "fengyun-1c-debris", "lat": -20.97545867657051, "lon": 87.50136630752738, "alt_km": 853.7363821579474, "timestamp": "2025-12-06T09:34:17.191944+00:00", "meta": {"OBJECT_NAME": "FENGYUN 1C DEB", "OBJECT_ID": "1999-025ARP", "EPOCH": "2025-12-05T12:54:32.577120", "MEAN_MOTION": 13.81262863, "ECCENTRICITY": 0.01988451, "INCLINATION": 102.1809, "RA_OF_ASC_NODE": 81.6438, "ARG_OF_PERICENTER": 299.2517, "MEAN_ANOMALY": 78.8881, "EPHEMERIS_TYPE": 0, "CLASSIFICATION_TYPE": "U", "NORAD_CAT_ID": 30705, "ELEMENT_SET_NO": 999, "REV_AT_EPOCH": 93910, "BSTAR": 0.0037329884, "MEAN_MOTION_DOT": 4.536e-05, "MEAN_MOTION_DDOT": 0}, "tle": {"line1": "1 30705U 99025ARP 25339.53787705  .00004536  00000+0  37330-2 0  9999", "line2": "2 30705 102.1809  81.6438 0198845 299.2517  78.8881 13.81262863939100"}}, "geometry": {"type": "Point", "coordinates": [87.50136630752738, -20.97545867657051]}}, {"type": "Feature", "properties": {"norad_id": 30706, "name": "FENGYUN 1C DEB", "group": "fengyun-1c-debris", "lat": -30.839377170046205, "lon": -119.74629254514481, "alt_km": 828.540562829904, "timestamp": "2025-12-06T09:34:17.191954+00:00", "meta": {"OBJECT_NAME": "FENGYUN 1C DEB", "OBJECT_ID": "1999-025ARQ", "EPOCH": "2025-12-05T23:37:02.361504", "MEAN_MOTION": 14.26382833, "ECCENTRICITY": 0.00261333, "INCLINATION": 99.0653, "RA_OF_ASC_NODE": 234.3547, "ARG_OF_PERICENTER": 148.0132, "MEAN_ANOMALY": 212.264, "EPHEMERIS_TYPE": 0, "CLASSIFICATION_TYPE": "U", "NORAD_CAT_ID": 30706, "ELEMENT_SET_NO": 999, "REV_AT_EPOCH": 97531, "BSTAR": 0.0015158505, "MEAN_MOTION_DOT": 3.612e-05, "MEAN_MOTION_DDOT": 0}, "tle": {"line1": "1 30706U 99025ARQ 25339.98405511  .00003612  00000+0  15159-2 0  9990", "line2": "2 30706  99.0653 234.3547 0026133 148.0132 212.2640 14.26382833975314"}}, "geometry": {"type": "Point", "coordinates": [-119.74629254514481, -30.839377170046205]}}, {"type": "Feature", "properties": {"norad_id": 30707, "name": "FENGYUN 1C DEB", "group": "fengyun-1c-debris", "lat": -14.35128075129896, "lon": -148.1314067793315, "alt_km": 813.2899131105414, "timestamp": "2025-12-06T09:34:17.191964+00:00", "meta": {"OBJECT_NAME": "FENGYUN 1C DEB", "OBJECT_ID": "1999-025ARR", "EPOCH": "2025-12-05T09:43:18.078240", "MEAN_MOTION": 14.2660812, "ECCENTRICITY": 0.00283575, "INCLINATION": 99.4136, "RA_OF_ASC_NODE": 33.2335, "ARG_OF_PERICENTER": 90.9148, "MEAN_ANOMALY": 42.376, "EPHEMERIS_TYPE": 0, "CLASSIFICATION_TYPE": "U", "NORAD_CAT_ID": 30707, "ELEMENT_SET_NO": 999, "REV_AT_EPOCH": 96698, "BSTAR": 0.0029710034, "MEAN_MOTION_DOT": 7.161e-05, "MEAN_MOTION_DDOT": 0}, "tle": {"line1": "1 30707U 99025ARR 25339.40507035  .00007161  00000+0  29710-2 0  9993", "line2": "2 30707  99.4136  33.2335 0028357  90.9148  42.3760 14.26608120966986"}}, "geometry": {"type": "Point", "coordinates": [-148.1314067793315, -14.35128075129896]}}, {"type": "Feature", "properties": {"norad_id": 30708, "name": "FENGYUN 1C DEB", "group": "fengyun-1c-debris", "lat": -47.19650708251432, "lon": 164.72350220323025, "alt_km": 853.2827348484016, "timestamp": "2025-12-06T09:34:17.191974+00:00", "meta": {"OBJECT_NAME": "FENGYUN 1C DEB", "OBJECT_ID": "1999-025ARS", "EPOCH": "2025-12-05T12:48:09.641088", "MEAN_MOTION": 14.12172559, "ECCENTRICITY": 0.0007734, "INCLINATION": 98.6908, "RA_OF_ASC_NODE": 353.3909, "ARG_OF_PERICENTER": 215.9935, "MEAN_ANOMALY": 294.9201, "EPHEMERIS_TYPE": 0, "CLASSIFICATION_TYPE": "U", "NORAD_CAT_ID": 30708, "ELEMENT_SET_NO": 999, "REV_AT_EPOCH": 96734, "BSTAR": 0.0002458467, "MEAN_MOTION_DOT": 4.09e-06, "MEAN_MOTION_DDOT": 0}, "tle": {"line1": "1 30708U 99025ARS 25339.53344492  .00000409  00000+0  24585-3 0  9998", "line2": "2 30708  98.6908 353.3909 0007734 215.9935 294.9201 14.12172559967340"}}, "geometry": {"type": "Point", "coordinates": [164.72350220323025, -47.19650708251432]}}, {"type": "Feature", "properties": {"norad_id": 30709, "name": "FENGYUN 1C DEB", "group": "fengyun-1c-debris", "lat": 43.920987282510794, "lon": 147.09566397982144, "alt_km": 883.8453189545244, "timestamp": "2025-12-06T09:34:17.191984+00:00", "meta": {"OBJECT_NAME": "FENGYUN 1C DEB", "OBJECT_ID": "1999-025ART", "EPOCH": "2025-12-05T15:59:12.559776", "MEAN_MOTION": 14.17357119, "ECCENTRICITY": 0.0083248, "INCLINATION": 99.1434, "RA_OF_ASC_NODE": 317.4197, "ARG_OF_PERICENTER": 290.2661, "MEAN_ANOMALY": 68.9579, "EPHEMERIS_TYPE": 0, "CLASSIFICATION_TYPE": "U", "NORAD_CAT_ID": 30709, "ELEMENT_SET_NO": 999, "REV_AT_EPOCH": 95896, "BSTAR": 0.0050714073, "MEAN_MOTION_DOT": 0.00010583, "MEAN_MOTION_DDOT": 0}, "tle": {"line1": "1 30709U 99025ART 25339.66611759  .00010583  00000+0  50714-2 0  9992", "line2": "2 30709  99.1434 317.4197 0083248 290.2661  68.9579 14.17357119958964"}}, "geometry": {"type": "Point", "coordinates": [147.09566397982144, 43.920987282510794]}}, {"type": "Feature", "properties": {"norad_id": 30710, "name": "FENGYUN 1C DEB", "group": "fengyun-1c-debris", "lat": -2.2450165331909426, "lon": 46.71363211705054, "alt_km": 896.3251653459893, "timestamp": "2025-12-06T09:34:17.191994+00:00", "meta": {"OBJECT_NAME": "FENGYUN 1C DEB", "OBJECT_ID": "1999-025ARU", "EPOCH": "2025-12-04T11:03:50.889888", "MEAN_MOTION": 13.94066259, "ECCENTRICITY": 0.0222726, "INCLINATION": 102.7466, "RA_OF_ASC_NODE": 224.5575, "ARG_OF_PERICENTER": 102.9253, "MEAN_ANOMALY": 76.0711, "EPHEMERIS_TYPE": 0, "CLASSIFICATION_TYPE": "U", "NORAD_CAT_ID": 30710, "ELEMENT_SET_NO": 999, "REV_AT_EPOCH": 94673, "BSTAR": 0.0042718, "MEAN_MOTION_DOT": 6.883e-05, "MEAN_MOTION_DDOT": 0}, "tle": {"line1": "1 30710U 99025ARU 25338.46100567  .00006883  00000+0  42718-2 0  9994", "line2": "2 30710 102.7466 224.5575 0222726 102.9253  76.0711 13.94066259946738"}}, "geometry": {"type": "Point", "coordinates": [46.71363211705054, -2.2450165331909426]}}, {"type": "Feature", "properties": {"norad_id": 30714, "name": "FENGYUN 1C DEB", "group": "fengyun-1c-debris", "lat": -40.18466829555861, "lon": 36.65535821218742, "alt_km": 842.9343648681424, "timestamp": "2025-12-06T09:34:17.192004+00:00", "meta": {"OBJECT_NAME": "FENGYUN 1C DEB", "OBJECT_ID": "1999-025ARY", "EPOCH": "2025-12-05T22:38:14.232192", "MEAN_MOTION": 14.03274038, "ECCENTRICITY": 0.00668398, "INCLINATION": 98.8383, "RA_OF_ASC_NODE": 28.6616, "ARG_OF_PERICENTER": 301.848, "MEAN_ANOMALY": 236.9601, "EPHEMERIS_TYPE": 0, "CLASSIFICATION_TYPE": "U", "NORAD_CAT_ID": 30714, "ELEMENT_SET_NO": 999, "REV_AT_EPOCH": 95897, "BSTAR": 0.0010600179, "MEAN_MOTION_DOT": 1.644e-05, "MEAN_MOTION_DDOT": 0}, "tle": {"line1": "1 30714U 99025ARY 25339.94322028  .00001644  00000+0  10600-2 0  9995", "line2": "2 30714  98.8383  28.6616 0066839 301.8480 236.9601 14.03274038958978"}}, "geometry": {"type": "Point", "coordinates": [36.65535821218742, -40.18466829555861]}}]}